[{"OBJECT_NAME":"STARLINK-36879","OBJECT_ID":"2026-038X","EPOCH":"2026-03-12T22:00:01.999584","MEAN_MOTION":15.80163911,"ECCENTRICITY":0.00018526,"INCLINATION":97.2706,"RA_OF_ASC_NODE":82.4307,"ARG_OF_PERICENTER":73.1222,"MEAN_ANOMALY":100.0988,"EPHEMERIS_TYPE":0,"CLASSIFICATION_TYPE":"U","NORAD_CAT_ID":67982,"ELEMENT_SET_NO":999,"REV_AT_EPOCH":371,"BSTAR":-0.014058867,"MEAN_MOTION_DOT":-0.02278115,"MEAN_MOTION_DDOT":0},{"OBJECT_NAME":"STARLINK-36867","OBJECT_ID":"2026-038Y","EPOCH":"2026-03-12T22:00:01.999584","MEAN_MOTION":15.80882572,"ECCENTRICITY":0.00015107,"INCLINATION":97.2694,"RA_OF_ASC_NODE":82.4363,"ARG_OF_PERICENTER":97.0565,"MEAN_ANOMALY":89.4451,"EPHEMERIS_TYPE":0,"CLASSIFICATION_TYPE":"U","NORAD_CAT_ID":67983,"ELEMENT_SET_NO":999,"REV_AT_EPOCH":371,"BSTAR":-0.013636235,"MEAN_MOTION_DOT":-0.02282958,"MEAN_MOTION_DDOT":0},{"OBJECT_NAME":"STARLINK-36266","OBJECT_ID":"2026-038Z","EPOCH":"2026-03-12T22:00:01.999584","MEAN_MOTION":15.80360098,"ECCENTRICITY":0.00016361,"INCLINATION":97.2704,"RA_OF_ASC_NODE":82.434,"ARG_OF_PERICENTER":95.7994,"MEAN_ANOMALY":84.7181,"EPHEMERIS_TYPE":0,"CLASSIFICATION_TYPE":"U","NORAD_CAT_ID":67984,"ELEMENT_SET_NO":999,"REV_AT_EPOCH":368,"BSTAR":-0.013958247,"MEAN_MOTION_DOT":-0.02281512,"MEAN_MOTION_DDOT":0},{"OBJECT_NAME":"STARLINK-36802","OBJECT_ID":"2026-038AA","EPOCH":"2026-03-12T22:00:01.999584","MEAN_MOTION":15.81000774,"ECCENTRICITY":0.00013682,"INCLINATION":97.269,"RA_OF_ASC_NODE":82.4378,"ARG_OF_PERICENTER":69.6078,"MEAN_ANOMALY":122.3079,"EPHEMERIS_TYPE":0,"CLASSIFICATION_TYPE":"U","NORAD_CAT_ID":67985,"ELEMENT_SET_NO":999,"REV_AT_EPOCH":371,"BSTAR":-0.013343228,"MEAN_MOTION_DOT":-0.02250791,"MEAN_MOTION_DDOT":0},{"OBJECT_NAME":"STARLINK-36535","OBJECT_ID":"2026-039A","EPOCH":"2026-03-12T22:00:01.999584","MEAN_MOTION":15.81938581,"ECCENTRICITY":0.00022336,"INCLINATION":42.9991,"RA_OF_ASC_NODE":35.1624,"ARG_OF_PERICENTER":250.1617,"MEAN_ANOMALY":196.1011,"EPHEMERIS_TYPE":0,"CLASSIFICATION_TYPE":"U","NORAD_CAT_ID":67986,"ELEMENT_SET_NO":999,"REV_AT_EPOCH":339,"BSTAR":0.00082088657,"MEAN_MOTION_DOT":0.00175229,"MEAN_MOTION_DDOT":0},{"OBJECT_NAME":"STARLINK-36744","OBJECT_ID":"2026-039B","EPOCH":"2026-03-12T22:00:01.999584","MEAN_MOTION":15.81930657,"ECCENTRICITY":0.00023106,"INCLINATION":42.9994,"RA_OF_ASC_NODE":35.1515,"ARG_OF_PERICENTER":225.2002,"MEAN_ANOMALY":225.3489,"EPHEMERIS_TYPE":0,"CLASSIFICATION_TYPE":"U","NORAD_CAT_ID":67987,"ELEMENT_SET_NO":999,"REV_AT_EPOCH":339,"BSTAR":0.00084013065,"MEAN_MOTION_DOT":0.00179371,"MEAN_MOTION_DDOT":0},{"OBJECT_NAME":"STARLINK-36734","OBJECT_ID":"2026-039C","EPOCH":"2026-03-12T22:00:01.999584","MEAN_MOTION":15.72299561,"ECCENTRICITY":0.00013176,"INCLINATION":42.9992,"RA_OF_ASC_NODE":35.2415,"ARG_OF_PERICENTER":264.7757,"MEAN_ANOMALY":149.297,"EPHEMERIS_TYPE":0,"CLASSIFICATION_TYPE":"U","NORAD_CAT_ID":67988,"ELEMENT_SET_NO":999,"REV_AT_EPOCH":339,"BSTAR":-0.016071692,"MEAN_MOTION_DOT":-0.01943258,"MEAN_MOTION_DDOT":0},{"OBJECT_NAME":"STARLINK-36957","OBJECT_ID":"2026-039D","EPOCH":"2026-03-12T22:00:01.999584","MEAN_MOTION":15.81932844,"ECCENTRICITY":0.00017936,"INCLINATION":42.9993,"RA_OF_ASC_NODE":35.129,"ARG_OF_PERICENTER":231.9708,"MEAN_ANOMALY":227.1335,"EPHEMERIS_TYPE":0,"CLASSIFICATION_TYPE":"U","NORAD_CAT_ID":67989,"ELEMENT_SET_NO":999,"REV_AT_EPOCH":339,"BSTAR":0.00072035163,"MEAN_MOTION_DOT":0.00153264,"MEAN_MOTION_DDOT":0},{"OBJECT_NAME":"STARLINK-36951","OBJECT_ID":"2026-039E","EPOCH":"2026-03-12T22:00:01.999584","MEAN_MOTION":15.81945868,"ECCENTRICITY":0.0001694,"INCLINATION":42.9993,"RA_OF_ASC_NODE":35.1182,"ARG_OF_PERICENTER":283.5809,"MEAN_ANOMALY":179.782,"EPHEMERIS_TYPE":0,"CLASSIFICATION_TYPE":"U","NORAD_CAT_ID":67990,"ELEMENT_SET_NO":999,"REV_AT_EPOCH":339,"BSTAR":0.00067347866,"MEAN_MOTION_DOT":0.00143174,"MEAN_MOTION_DDOT":0},{"OBJECT_NAME":"STARLINK-36941","OBJECT_ID":"2026-039F","EPOCH":"2026-03-12T22:00:01.999584","MEAN_MOTION":15.71948526,"ECCENTRICITY":0.00012994,"INCLINATION":42.9991,"RA_OF_ASC_NODE":35.2154,"ARG_OF_PERICENTER":264.2902,"MEAN_ANOMALY":159.6453,"EPHEMERIS_TYPE":0,"CLASSIFICATION_TYPE":"U","NORAD_CAT_ID":67991,"ELEMENT_SET_NO":999,"REV_AT_EPOCH":339,"BSTAR":-0.016274244,"MEAN_MOTION_DOT":-0.01938845,"MEAN_MOTION_DDOT":0},{"OBJECT_NAME":"STARLINK-36950","OBJECT_ID":"2026-039G","EPOCH":"2026-03-12T22:00:01.999584","MEAN_MOTION":15.77444178,"ECCENTRICITY":0.00012658,"INCLINATION":42.9995,"RA_OF_ASC_NODE":35.1181,"ARG_OF_PERICENTER":272.3714,"MEAN_ANOMALY":190.4756,"EPHEMERIS_TYPE":0,"CLASSIFICATION_TYPE":"U","NORAD_CAT_ID":67992,"ELEMENT_SET_NO":999,"REV_AT_EPOCH":339,"BSTAR":-0.012911539,"MEAN_MOTION_DOT":-0.01917959,"MEAN_MOTION_DDOT":0},{"OBJECT_NAME":"STARLINK-36975","OBJECT_ID":"2026-039H","EPOCH":"2026-03-12T22:00:01.999584","MEAN_MOTION":15.7873633,"ECCENTRICITY":0.00013007,"INCLINATION":42.9996,"RA_OF_ASC_NODE":35.0963,"ARG_OF_PERICENTER":269.9104,"MEAN_ANOMALY":201.5973,"EPHEMERIS_TYPE":0,"CLASSIFICATION_TYPE":"U","NORAD_CAT_ID":67993,"ELEMENT_SET_NO":999,"REV_AT_EPOCH":339,"BSTAR":-0.012187353,"MEAN_MOTION_DOT":-0.01919932,"MEAN_MOTION_DDOT":0},{"OBJECT_NAME":"STARLINK-36993","OBJECT_ID":"2026-039J","EPOCH":"2026-03-12T22:00:01.999584","MEAN_MOTION":15.81940354,"ECCENTRICITY":0.00020379,"INCLINATION":42.9995,"RA_OF_ASC_NODE":35.0748,"ARG_OF_PERICENTER":257.9255,"MEAN_ANOMALY":222.5257,"EPHEMERIS_TYPE":0,"CLASSIFICATION_TYPE":"U","NORAD_CAT_ID":67994,"ELEMENT_SET_NO":999,"REV_AT_EPOCH":339,"BSTAR":0.00076224743,"MEAN_MOTION_DOT":0.00162442,"MEAN_MOTION_DDOT":0},{"OBJECT_NAME":"STARLINK-36968","OBJECT_ID":"2026-039K","EPOCH":"2026-03-12T22:00:01.999584","MEAN_MOTION":15.75262788,"ECCENTRICITY":0.00011719,"INCLINATION":42.9994,"RA_OF_ASC_NODE":35.1019,"ARG_OF_PERICENTER":264.3806,"MEAN_ANOMALY":204.9039,"EPHEMERIS_TYPE":0,"CLASSIFICATION_TYPE":"U","NORAD_CAT_ID":67995,"ELEMENT_SET_NO":999,"REV_AT_EPOCH":339,"BSTAR":-0.014186452,"MEAN_MOTION_DOT":-0.01911924,"MEAN_MOTION_DDOT":0},{"OBJECT_NAME":"STARLINK-36979","OBJECT_ID":"2026-039L","EPOCH":"2026-03-12T22:00:01.999584","MEAN_MOTION":15.81921753,"ECCENTRICITY":0.00026546,"INCLINATION":42.9994,"RA_OF_ASC_NODE":35.0634,"ARG_OF_PERICENTER":246.6789,"MEAN_ANOMALY":238.057,"EPHEMERIS_TYPE":0,"CLASSIFICATION_TYPE":"U","NORAD_CAT_ID":67996,"ELEMENT_SET_NO":999,"REV_AT_EPOCH":339,"BSTAR":0.00087043885,"MEAN_MOTION_DOT":0.00185933,"MEAN_MOTION_DDOT":0},{"OBJECT_NAME":"STARLINK-36994","OBJECT_ID":"2026-039M","EPOCH":"2026-03-12T22:00:01.999584","MEAN_MOTION":15.819707,"ECCENTRICITY":0.00023327,"INCLINATION":42.9994,"RA_OF_ASC_NODE":35.031,"ARG_OF_PERICENTER":268.2438,"MEAN_ANOMALY":229.2876,"EPHEMERIS_TYPE":0,"CLASSIFICATION_TYPE":"U","NORAD_CAT_ID":67997,"ELEMENT_SET_NO":999,"REV_AT_EPOCH":339,"BSTAR":0.00053079376,"MEAN_MOTION_DOT":0.00112463,"MEAN_MOTION_DDOT":0},{"OBJECT_NAME":"STARLINK-36988","OBJECT_ID":"2026-039N","EPOCH":"2026-03-12T22:00:01.999584","MEAN_MOTION":15.81945583,"ECCENTRICITY":0.00019703,"INCLINATION":42.9995,"RA_OF_ASC_NODE":35.042,"ARG_OF_PERICENTER":268.6501,"MEAN_ANOMALY":224.6271,"EPHEMERIS_TYPE":0,"CLASSIFICATION_TYPE":"U","NORAD_CAT_ID":67998,"ELEMENT_SET_NO":999,"REV_AT_EPOCH":339,"BSTAR":0.0006546683,"MEAN_MOTION_DOT":0.00139096,"MEAN_MOTION_DDOT":0},{"OBJECT_NAME":"STARLINK-36926","OBJECT_ID":"2026-039P","EPOCH":"2026-03-12T22:00:01.999584","MEAN_MOTION":15.8195271,"ECCENTRICITY":0.00020486,"INCLINATION":42.9994,"RA_OF_ASC_NODE":35.0205,"ARG_OF_PERICENTER":257.5773,"MEAN_ANOMALY":244.2393,"EPHEMERIS_TYPE":0,"CLASSIFICATION_TYPE":"U","NORAD_CAT_ID":67999,"ELEMENT_SET_NO":999,"REV_AT_EPOCH":339,"BSTAR":0.00062047121,"MEAN_MOTION_DOT":0.00131734,"MEAN_MOTION_DDOT":0},{"OBJECT_NAME":"STARLINK-36931","OBJECT_ID":"2026-039Q","EPOCH":"2026-03-12T22:00:01.999584","MEAN_MOTION":15.81916263,"ECCENTRICITY":0.00015333,"INCLINATION":42.9995,"RA_OF_ASC_NODE":35.0106,"ARG_OF_PERICENTER":270.7674,"MEAN_ANOMALY":235.3273,"EPHEMERIS_TYPE":0,"CLASSIFICATION_TYPE":"U","NORAD_CAT_ID":68000,"ELEMENT_SET_NO":999,"REV_AT_EPOCH":339,"BSTAR":0.00094349205,"MEAN_MOTION_DOT":0.00201888,"MEAN_MOTION_DDOT":0},{"OBJECT_NAME":"STARLINK-36903","OBJECT_ID":"2026-039R","EPOCH":"2026-03-12T22:00:01.999584","MEAN_MOTION":15.8193862,"ECCENTRICITY":0.00014613,"INCLINATION":42.9996,"RA_OF_ASC_NODE":34.9986,"ARG_OF_PERICENTER":272.9896,"MEAN_ANOMALY":237.3725,"EPHEMERIS_TYPE":0,"CLASSIFICATION_TYPE":"U","NORAD_CAT_ID":68001,"ELEMENT_SET_NO":999,"REV_AT_EPOCH":339,"BSTAR":0.00077369224,"MEAN_MOTION_DOT":0.00164918,"MEAN_MOTION_DDOT":0},{"OBJECT_NAME":"STARLINK-36898","OBJECT_ID":"2026-039S","EPOCH":"2026-03-12T22:00:01.999584","MEAN_MOTION":15.8189677,"ECCENTRICITY":0.00019901,"INCLINATION":42.9997,"RA_OF_ASC_NODE":34.9769,"ARG_OF_PERICENTER":237.0845,"MEAN_ANOMALY":281.8374,"EPHEMERIS_TYPE":0,"CLASSIFICATION_TYPE":"U","NORAD_CAT_ID":68002,"ELEMENT_SET_NO":999,"REV_AT_EPOCH":339,"BSTAR":0.0010977923,"MEAN_MOTION_DOT":0.00235711,"MEAN_MOTION_DDOT":0},{"OBJECT_NAME":"STARLINK-36862","OBJECT_ID":"2026-039T","EPOCH":"2026-03-12T22:00:01.999584","MEAN_MOTION":15.81898543,"ECCENTRICITY":0.00016554,"INCLINATION":42.9995,"RA_OF_ASC_NODE":34.9556,"ARG_OF_PERICENTER":265.0274,"MEAN_ANOMALY":262.4422,"EPHEMERIS_TYPE":0,"CLASSIFICATION_TYPE":"U","NORAD_CAT_ID":68003,"ELEMENT_SET_NO":999,"REV_AT_EPOCH":339,"BSTAR":0.0010458413,"MEAN_MOTION_DOT":0.00224246,"MEAN_MOTION_DDOT":0},{"OBJECT_NAME":"STARLINK-36888","OBJECT_ID":"2026-039U","EPOCH":"2026-03-12T22:00:01.999584","MEAN_MOTION":15.81939995,"ECCENTRICITY":0.0001905,"INCLINATION":42.9995,"RA_OF_ASC_NODE":34.9883,"ARG_OF_PERICENTER":286.7909,"MEAN_ANOMALY":227.8542,"EPHEMERIS_TYPE":0,"CLASSIFICATION_TYPE":"U","NORAD_CAT_ID":68004,"ELEMENT_SET_NO":999,"REV_AT_EPOCH":339,"BSTAR":0.00070415927,"MEAN_MOTION_DOT":0.00149798,"MEAN_MOTION_DDOT":0}]
